HAWK-11C                
1 62381U 24247E   26068.51221537  .00009223  00000+0  33290-3 0  9992
2 62381  45.0045 114.8762 0005900 329.7040  30.3502 15.28848020 67743
STARLINK-35965          
1 66631U 25271Q   26068.51651221  .00025523  00000+0  87008-3 0  9996
2 66631  53.1595 140.4931 0001572  73.2754 286.8419 15.30231015 17543
